STARLINK-1767           
1 46345U 20062W   23276.87366911  .00033651  00000+0  22636-2 0  9991
2 46345  53.0548  42.1766 0001696  97.6013 262.5168 15.06459785170494
STARLINK-1547           
1 46347U 20062Y   23276.50002845  .00004745  00000+0  33727-3 0  9992
2 46347  53.0555 358.8558 0001592  96.0534 264.0636 15.06396779171240
STARLINK-1553           
1 46348U 20062Z   23276.61013449  .00017225  00000+0  11716-2 0  9997
2 46348  53.0559  23.3630 0001402  91.1849 268.9301 15.06426760170734
STARLINK-1575           
1 46349U 20062AA  23276.54057748  .00035908  00000+0  24179-2 0  9995
2 46349  53.0556 358.6756 0001427  94.8335 265.2817 15.06391022171254
STARLINK-1617           
1 46350U 20062AB  23276.77046204  .00037445  00000+0  25154-2 0  9999
2 46350  53.0550  42.6409 0001808  94.0542 266.0654 15.06459220170487
STARLINK-1646           
1 46351U 20062AC  23276.57695711  .00034383  00000+0  23129-2 0  9999
2 46351  53.0562  23.5115 0001589 101.0790 259.0378 15.06448992170741
STARLINK-1653           
1 46352U 20062AD  23276.55853327  .00041188  00000+0  27645-2 0  9995
2 46352  53.0553  23.5959 0001411  83.4412 276.6738 15.06445539170734
STARLINK-1656           
1 46353U 20062AE  23276.62302893  .00036323  00000+0  24415-2 0  9998
2 46353  53.0555  43.3048 0001837  88.0029 272.1170 15.06451251170631
STARLINK-1657           
1 46354U 20062AF  23276.87735425  .00034377  00000+0  23117-2 0  9992
2 46354  53.0551  42.1598 0001404  82.0665 278.0483 15.06461863170671
STARLINK-1661           
1 46355U 20062AG  23276.65251765  .00015365  00000+0  10477-2 0  9990
2 46355  53.0565  43.1741 0001672  83.3231 276.7949 15.06417096170466
STARLINK-1665           
1 46356U 20062AH  23276.66726456  .00029027  00000+0  19574-2 0  9993
2 46356  53.0560  43.1465 0001504  77.5377 282.5781 15.06441178170642
STARLINK-1666           
1 46357U 20062AJ  23276.79442042  .00039513  00000+0  26520-2 0  9994
2 46357  53.0550  22.5332 0001757  77.3720 282.7466 15.06465831170763
STARLINK-1690           
1 46358U 20062AK  23276.77414882  .00036354  00000+0  24431-2 0  9993
2 46358  53.0564  42.6266 0001466  76.5688 283.5465 15.06458319170489
STARLINK-1707           
1 46359U 20062AL  23276.55531625  .00001388  00000+0  11210-3 0  9996
2 46359  53.0549 358.6074 0001381  84.7078 275.4068 15.06385386171078
STARLINK-1713           
1 46360U 20062AM  23276.71013358  .00032173  00000+0  21689-2 0  9990
2 46360  53.0559 357.9136 0001423  86.9431 273.1720 15.06401430171109
STARLINK-1722           
1 46361U 20062AN  23276.54699734 -.00001379  00000+0 -73734-4 0  9996
2 46361  53.0551 358.6370 0001735  90.2338 269.8849 15.06388906171241
STARLINK-1726           
1 46362U 20062AP  23277.18929880  .00030913  00000+0  20835-2 0  9992
2 46362  53.0566 355.7635 0001608  78.4489 281.6680 15.06428296171358
STARLINK-1739           
1 46363U 20062AQ  23276.71655830  .00030149  00000+0  20344-2 0  9998
2 46363  53.0564 357.8752 0001427  85.9692 274.1460 15.06398230171108
STARLINK-1763           
1 46364U 20062AR  23277.18383140  .00013992  00000+0  95602-3 0  9990
2 46364  53.0556 336.2951 0001706  96.0638 264.0545 15.06413774171625
STARLINK-1550           
1 46365U 20062AS  23277.02713024  .00029388  00000+0  19828-2 0  9993
2 46365  53.0559 356.4899 0001329  89.0890 271.0251 15.06414945171305
STARLINK-1651           
1 46366U 20062AT  23276.55163967  .00014123  00000+0  96566-3 0  9992
2 46366  53.0545 358.6303 0001746  85.5720 274.5469 15.06378061171252
STARLINK-1658           
1 46368U 20062AV  23276.68290442  .00039555  00000+0  26556-2 0  9994
2 46368  53.0558  23.0295 0001732 109.6566 250.4610 15.06454849170756
STARLINK-1670           
1 46370U 20062AX  23276.58064428  .00042562  00000+0  28550-2 0  9997
2 46370  53.0558  23.4935 0001470  83.5912 276.5244 15.06452610170732
STARLINK-1688           
1 46371U 20062AY  23276.57327564  .00041773  00000+0  28023-2 0  9998
2 46371  53.0549  23.5304 0001430  88.4197 271.6956 15.06458398170734
STARLINK-1689           
1 46372U 20062AZ  23276.84786363  .00027124  00000+0  18300-2 0  9996
2 46372  53.0563  42.2961 0001393  83.4079 276.7068 15.06457908170499
STARLINK-1711           
1 46374U 20062BB  23277.19342855  .00018460  00000+0  12547-2 0  9991
2 46374  53.0548 330.7478 0001360  95.5907 264.5237 15.06406500171698
STARLINK-1724           
1 46375U 20062BC  23276.74330802  .00013668  00000+0  93492-3 0  9995
2 46375  53.0548 357.7627 0001808  77.1682 282.9509 15.06389604171104
STARLINK-1742           
1 46376U 20062BD  23276.49265554  .00001443  00000+0  11578-3 0  9992
2 46376  53.0536 358.8875 0001367  87.7767 272.3379 15.06381502171242
STARLINK-1758           
1 46380U 20062BH  23276.59169655  .00020428  00000+0  13848-2 0  9998
2 46380  53.0563  23.4446 0001345  86.0856 274.0287 15.06441468170911
STARLINK-1769           
1 46382U 20062BK  23276.50740631  .00028287  00000+0  19110-2 0  9999
2 46382  53.0549 358.8258 0001259 103.9189 256.1940 15.06386621171226
STARLINK-1770           
1 46383U 20062BL  23276.62671272  .00033117  00000+0  22290-2 0  9998
2 46383  53.0557  43.2885 0001455  83.6304 276.4850 15.06445590170458
STARLINK-1771           
1 46384U 20062BM  23276.63039853  .00033557  00000+0  22583-2 0  9996
2 46384  53.0556  43.2672 0001448  85.5338 274.5816 15.06444255170450
STARLINK-1644           
1 46532U 20070A   23277.16117532  .00043879  00000+0  29416-2 0  9990
2 46532  53.0529 200.8892 0001279  91.8261 268.2874 15.06460427165757
STARLINK-1648           
1 46533U 20070B   23276.50877920  .00040597  00000+0  27284-2 0  9997
2 46533  53.0534 203.8183 0001317  93.3735 266.7405 15.06403983165630
STARLINK-1659           
1 46534U 20070C   23277.15380826  .00042963  00000+0  28810-2 0  9999
2 46534  53.0540 200.9206 0001298  80.7193 279.3943 15.06460213165757
STARLINK-1663           
1 46535U 20070D   23276.94371353  .00042523  00000+0  28528-2 0  9999
2 46535  53.0536 201.8672 0001288 112.7700 247.3425 15.06447820165714
STARLINK-1672           
1 46537U 20070F   23276.50508817  .00041022  00000+0  27568-2 0  9996
2 46537  53.0534 203.8345 0000670 113.5787 246.5272 15.06401648165631
STARLINK-1678           
1 46538U 20070G   23277.01374158  .00043421  00000+0  29125-2 0  9999
2 46538  53.0536 201.5522 0001223 118.5147 241.5966 15.06444549165414
STARLINK-1687           
1 46541U 20070K   23277.12616971  .00044316  00000+0  29708-2 0  9998
2 46541  53.0529 181.0471 0001346 103.3390 256.7749 15.06457360166001
STARLINK-1692           
1 46542U 20070L   23276.53089772  .00023784  00000+0  16101-2 0  9995
2 46542  53.0526 203.7198 0001244  82.0635 278.0495 15.06403324165633
STARLINK-1693           
1 46543U 20070M   23276.51615743  .00043152  00000+0  28974-2 0  9999
2 46543  53.0533 203.7858 0001065 111.3258 248.7845 15.06410196165631
STARLINK-1694           
1 46544U 20070N   23277.17545356  .00045842  00000+0  30709-2 0  9992
2 46544  53.0540 185.8263 0001232 112.0619 248.0501 15.06467570165950
STARLINK-1696           
1 46545U 20070P   23276.08858021  .00022440  00000+0  15211-2 0  9998
2 46545  53.0539 205.7022 0001207 109.1073 251.0046 15.06387566165568
STARLINK-1697           
1 46546U 20070Q   23276.93634764  .00043199  00000+0  28975-2 0  9994
2 46546  53.0537 201.9004 0001109 109.4960 250.6149 15.06448757165406
STARLINK-1698           
1 46547U 20070R   23276.96488225  .00036158  00000+0  24304-2 0  9996
2 46547  53.0536 201.7608 0001185 114.9870 245.1242 15.06453890165721
STARLINK-1699           
1 46548U 20070S   23276.51246891  .00040963  00000+0  27532-2 0  9994
2 46548  53.0530 203.8019 0001413 100.7562 259.3586 15.06396806165653
STARLINK-1700           
1 46549U 20070T   23276.94001992  .00026108  00000+0  17636-2 0  9992
2 46549  53.0538 201.8812 0001282  84.2456 275.8679 15.06432701165698
STARLINK-1701           
1 46550U 20070U   23276.79259957  .00039186  00000+0  26338-2 0  9992
2 46550  53.0532 202.5450 0001452 108.0393 252.0754 15.06417450165699
STARLINK-1664           
1 46553U 20070X   23276.91330635  .00040530  00000+0  27218-2 0  9995
2 46553  53.0527 172.0113 0001416  83.5573 276.5577 15.06433560166112
STARLINK-1671           
1 46554U 20070Y   23277.16440099  .00046953  00000+0  31437-2 0  9993
2 46554  53.0536 185.8731 0001549 107.2156 252.9002 15.06475731165957
STARLINK-1676           
1 46556U 20070AA  23277.15749198  .00046344  00000+0  31046-2 0  9996
2 46556  53.0535 200.9014 0001304  90.4711 269.6427 15.06462030165752
STARLINK-1679           
1 46557U 20070AB  23277.11660530  .00025883  00000+0  16720-2 0  9992
2 46557  53.0539 185.8992 0001305  76.7846 283.3289 15.08090425165958
STARLINK-1680           
1 46558U 20070AC  23276.94325321  .00025637  00000+0  17321-2 0  9994
2 46558  53.0535 186.8658 0001590 109.7874 250.3286 15.06434854165888
STARLINK-1681           
1 46559U 20070AD  23276.93079155  .00024182  00000+0  16355-2 0  9995
2 46559  53.0531 171.9149 0001320  96.4267 263.6872 15.06428762166110
STARLINK-1709           
1 46561U 20070AF  23277.17451734  .00024157  00000+0  16334-2 0  9991
2 46561  53.0533 185.8575 0001540  95.6492 264.4673 15.06439013165957
STARLINK-1714           
1 46562U 20070AG  23277.17313298  .00039808  00000+0  26716-2 0  9998
2 46562  53.0534 180.8256 0001717  99.5230 260.5953 15.06465243165715
STARLINK-1730           
1 46563U 20070AH  23277.15565094  .00045725  00000+0  30627-2 0  9991
2 46563  53.0531 180.9161 0001638  83.9852 276.1324 15.06473145166028
STARLINK-1733           
1 46564U 20070AJ  23276.93818928  .00042543  00000+0  28532-2 0  9991
2 46564  53.0522 181.8910 0001685  89.5427 270.5755 15.06459640165987
STARLINK-1735           
1 46565U 20070AK  23276.91607361  .00039882  00000+0  26776-2 0  9997
2 46565  53.0531 181.9910 0001295  94.5724 265.5413 15.06449843165970
